,page,startDate,endDate,name,url,addressCountry,addressLocality,addressRegion,streetAddress,postalCode,latitude,longitude,locationName
0,1,2023-06-12,2023-06-13,AsiaBerlin Summit 2023,https://www.eventbrite.de/e/asiaberlin-summit-2023-tickets-537155806477,DE,Berlin,BE,Rathausstraße 15,10178,52.51827749999999,13.4086443,Rotes Rathaus
1,1,2023-06-10,2023-06-11,AFRICAN FOOD FESTIVAL BERLIN - SUMMERMARKET EDITION,https://www.eventbrite.de/e/african-food-festival-berlin-summermarket-edition-tickets-641673431507,DE,Berlin,Berlin,Luckenwalder Straße 6b,10963,52.4989607,13.3732248,jules Gleisdreieck | Café | Canteen | Beergarden
2,1,2023-07-08,2023-07-09,LoveBase,https://www.eventbrite.de/e/lovebase-tickets-635329917887,DE,Berlin,Berlin,Knaackstraße 97,10435,52.5393856,13.413710600000059,Kulturbrauerei
3,1,2023-06-11,2023-06-11,"★LIVE STAND UP COMEDY★im Comedy Club ""Mad Monkey Room"" | 18:00h| 030 COMEDY",https://www.eventbrite.de/e/live-stand-up-comedyim-comedy-club-mad-monkey-room-1800h-030-comedy-tickets-383466276957,DE,Berlin,Berlin,Danziger Straße 1,10435,52.54172089999999,13.4121977,Mad Monkey Room
4,1,2023-06-24,2023-06-25,UNSHAVED Bear Summer Edition 2023,https://www.eventbrite.de/e/unshaved-bear-summer-edition-2023-tickets-633483866297,DE,Berlin,Berlin,Obentrautstraße 19-21,10963,52.49597199999999,13.387725799999998,Gretchen
5,1,2023-07-01,2023-07-01,STICKS & STONES Berlin '23 - Europas größte LGBTIQ+ Job- & Karrieremesse,https://www.eventbrite.de/e/sticks-stones-berlin-23-europas-grote-lgbtiq-job-karrieremesse-tickets-471024656427,DE,Berlin,BE,Mercedes-Platz 2,10243,52.5051406,13.4429749,Verti Music Hall
6,1,2023-06-08,2023-06-08,How to nail the tech hiring process: Women in tech Berlin,https://www.eventbrite.co.uk/e/how-to-nail-the-tech-hiring-process-women-in-tech-berlin-tickets-632881384257,DE,Berlin,BE,Lohmühlenstraße 65,12435,52.4940556,13.4463246,Factory Berlin Görlitzer Park
7,1,2023-06-07,2023-06-07,David and Goliath: Sustainable Fashion Panel with t3n,https://www.eventbrite.com/e/david-and-goliath-sustainable-fashion-panel-with-t3n-tickets-474075531677,DE,Berlin,Berlin,Lohmühlenstraße 65,12435,52.4940361,13.4462696,Factory Berlin Görlitzer Park
8,1,2023-06-23,2023-06-23,That's What She Said - Female Comedy Night,https://www.eventbrite.de/e/thats-what-she-said-female-comedy-night-tickets-472117144087,DE,Berlin,BE,Kopenhagener Straße 16,10437,52.5491865,13.4081362,Kohlenquelle
9,1,2023-06-16,2023-06-18,Großer Pflanzenverkauf - Berlin,https://www.eventbrite.de/e/groer-pflanzenverkauf-berlin-tickets-634740344457,DE,Berlin,BE,Luckenwalder Straße 3,10963,52.4996866,13.3765572,Kühlhaus Berlin
10,1,2023-06-07,2023-06-07,Saying the Wrong Thing: An English Comedy Hour in Berlin(Free Entry),https://www.eventbrite.com/e/saying-the-wrong-thing-an-english-comedy-hour-in-berlinfree-entry-tickets-626344181307,DE,Berlin,BE,Kopenhagener Straße 16,10437,52.5491865,13.4081362,Kohlenquelle
11,1,2023-06-18,2023-06-18,awk.word presents: Shaden in Berlin,https://www.eventbrite.com/e/awkword-presents-shaden-in-berlin-tickets-629279179967,DE,Berlin,BE,Möckernstrasse 10,10963,52.50162599999999,13.381228,Tempodrom Berlin
12,1,2023-06-09,2023-06-09,Shimmy Shake Shows @LOVELITE,https://www.eventbrite.com/e/shimmy-shake-shows-lovelite-tickets-549233170197,DE,Berlin,BE,Haasestraße 1,10245,52.5066667,13.4616667,Lovelite
13,1,2023-06-09,2023-06-09,The Epic Comedy Show: An English Comedy Event in Berlin (English-Speaking),https://www.eventbrite.com/e/the-epic-comedy-show-an-english-comedy-event-in-berlin-english-speaking-tickets-640145601727,DE,Berlin,BE,Tucholskystraße 30,10117,52.5260125,13.3936047,Zosch
14,1,2023-06-25,2023-06-25,TwoSet Violin World Tour 2023/24,https://www.eventbrite.com.au/e/twoset-violin-world-tour-202324-tickets-606860464987,DE,Berlin,BE,Herbert-von-Karajan-Straße 1,10785,52.5100319,13.369693,Berliner Philharmonie
15,1,2023-06-15,2023-06-15,Business Creator Summit 2023 by Diana zur Löwen & Sarah Emmerich,https://www.eventbrite.de/e/business-creator-summit-2023-by-diana-zur-lowen-sarah-emmerich-tickets-462555284307,DE,Berlin,BE,Bessemerstraße 2-14,12103,52.4669474,13.36592,Malzfabrik
16,1,2023-06-10,2023-06-10,Truth and Lies: A Comedy Game Show,https://www.eventbrite.co.uk/e/truth-and-lies-a-comedy-game-show-tickets-622526241747,DE,Berlin,BE,Nürnberger Straße 68,10787,52.5045029,13.3412219,Terminal 1 Berlin
17,1,2023-06-14,2023-06-15,BERLIN MUSIC VIDEO AWARDS 2023 (11th EDITION),https://www.eventbrite.de/e/berlin-music-video-awards-2023-11th-edition-tickets-595759732397,DE,Berlin,Berlin,Obentrautstraße 19-21,10963,52.49597199999999,13.387725799999998,Gretchen
18,1,2023-06-20,2023-06-20,Life drawing with a twist: Life models in costume and exciting settings,https://www.eventbrite.de/e/life-drawing-with-a-twist-life-models-in-costume-and-exciting-settings-tickets-640477163437,DE,Berlin,BE,Donaustraße 119,12043,52.484075,13.4324361,Das Gift
19,1,2023-06-17,2023-06-17,Career Conference,https://www.eventbrite.co.uk/e/career-conference-tickets-607202528107,DE,Berlin,BE,Bouchéstraße 12 Halle 20,12435,52.4936476,13.448235,MotionLab.Berlin
20,2,2023-06-15,2023-06-15,1 Jahr Podcast UnterFreunden! LIVE aus der US-Botschaft in Berlin.,https://www.eventbrite.com/e/1-jahr-podcast-unterfreunden-live-aus-der-us-botschaft-in-berlin-tickets-638728583387,DE,Berlin,BE,Pariser Platz 2,10117,52.51571609999999,13.3783641,U.S. Embassy Berlin
21,2,2023-06-29,2023-06-29,Demo Day Berlin | Techstars Audi Mobility Founder Innovation Lab,https://www.eventbrite.com/e/demo-day-berlin-techstars-audi-mobility-founder-innovation-lab-tickets-633941886247,DE,Berlin,BE,Lohmühlenstraße 65,12435,52.4940556,13.4463246,Factory Berlin Görlitzer Park
22,2,2023-06-11,2023-06-11,New York Comedy Club - Berlin: Main Show,https://www.eventbrite.com/e/new-york-comedy-club-berlin-main-show-tickets-644947323807,DE,Berlin,Berlin,Bergstr. 2,10115,52.52959140000001,13.3960754,Z Bar
23,2,2023-06-23,2023-06-23,Pride Check Out Drinks,https://www.eventbrite.com/e/pride-check-out-drinks-tickets-595857203937,DE,Berlin,Berlin,Lohmühlenstraße 65,12435,52.4940361,13.4462696,Factory Berlin Görlitzer Park
24,2,2023-06-08,2023-06-08,CHECKPOINT Political Consulting 2023,https://www.eventbrite.de/e/checkpoint-political-consulting-2023-tickets-576987564337,DE,Berlin,Berlin,Friedrichstraße 181,10117,52.51258259999999,13.389253800000006,Deutsche Bank Quartier Zukunft
25,2,2023-06-09,2023-06-10,Fisch sucht Fahrrad Berlin | Single Party | 09.06.23,https://www.eventbrite.de/e/fisch-sucht-fahrrad-berlin-single-party-090623-tickets-530550229017,DE,Berlin,,Schönhauser Allee 36,10435,52.53925100000001,13.41355329999999,FRANNZ
26,2,2023-07-01,2023-07-02,Power Day Berlin 2023,https://www.eventbrite.de/e/power-day-berlin-2023-tickets-636510318497,DE,Teltow,BB,Osdorfer Straße Ecke Schönower Straße,14513,52.4002488,13.2733302,Circus Rogall Teltow
27,2,2023-06-11,2023-06-11,Babykonzert - klassische Musik für Eltern mit Babys - Babyevent,https://www.eventbrite.de/e/babykonzert-klassische-musik-fur-eltern-mit-babys-babyevent-tickets-622467455917,DE,Berlin,BE,Am Juliusturm 64,13599,52.5407978,13.2126437,Zitadelle Spandau
28,2,2023-06-28,2023-06-28,Wine Down: Meet the Changemakers: Sustainable Food Edition,https://www.eventbrite.de/e/wine-down-meet-the-changemakers-sustainable-food-edition-tickets-538961336867,DE,Berlin,,Rollbergstraße 28A,12053,52.479124,13.432526,Impact Hub Berlin
29,2,2023-06-11,2023-06-11,⭐⭐Free Argentinian Tango Lessons⭐⭐ With Afterparty ♡ @West Berlin,https://www.eventbrite.com/e/free-argentinian-tango-lessons-with-afterparty-west-berlin-tickets-629381034617,DE,Berlin,BE,Bugenhagenstraße 9,10551,52.5279417,13.341613,CISpace Coworking Café
30,2,2023-07-29,2023-07-29,Der beste Poetry Slam der Welt (2023) ☀ Open Air am Strand,https://www.eventbrite.de/e/der-beste-poetry-slam-der-welt-2023-open-air-am-strand-tickets-618420832357,DE,Berlin,BE,Berliner Allee 155,13088,52.5539678,13.4655583,Strandbad Weißensee
31,2,2023-10-06,2023-10-07,Leadership Retreat 2023,https://www.eventbrite.co.uk/e/leadership-retreat-2023-tickets-594841275267,DE,Berlin,BB,Landsberger Allee 106,10369,52.528366,13.457008,Vienna House Andel’s Berlin
32,2,2023-09-09,2023-09-09,Lachkater Gold - Die Stand Up Comedy Show mit den gefragtesten Comedians,https://www.eventbrite.com/e/lachkater-gold-die-stand-up-comedy-show-mit-den-gefragtesten-comedians-tickets-606641339577,DE,Berlin,BE,Raumerstraße 9,10437,52.5427945,13.4180772,ewig freunde
33,2,2023-06-13,2023-06-14,10th FOKUS Media Web Symposium,https://www.eventbrite.de/e/10th-fokus-media-web-symposium-registration-582194458297,DE,Berlin,Berlin,Kaiserin-Augusta-Allee 31,10589,52.526,13.314487500000041,Fraunhofer FOKUS
34,2,2023-06-07,2023-06-07,Berlin Boss Babes Fuck Up Night,https://www.eventbrite.de/e/berlin-boss-babes-fuck-up-night-tickets-635346918737,DE,Berlin,,Entrance through the gate,10245,52.5162746,13.377704,Revaler Str. 31
35,2,2023-06-29,2023-06-29,Startup Breakfast,https://www.eventbrite.de/e/startup-breakfast-tickets-575893501967,DE,Berlin,BE,Winterfeldtstraße 21,10781,52.4963418,13.3581017,hubraum - tech incubator of Deutsche Telekom
36,2,2023-06-11,2023-06-11,Sunday Me 2023 ✺ Strandbad Babelsberg,https://www.eventbrite.de/e/sunday-me-2023-strandbad-babelsberg-tickets-596674368097,DE,Potsdam,,Am Babelsberger Park 2,14482,52.4045528,13.093578799999932,Strandbad Park Babelsberg
37,2,2023-06-20,2023-06-20,Lachkater Comedy - Die Stand Up Comedy Show,https://www.eventbrite.com/e/lachkater-comedy-die-stand-up-comedy-show-tickets-636189539037,DE,Berlin,BE,Raumerstraße 16,10437,52.5427945,13.4180771,Al Hamra
38,2,2023-06-09,2023-06-09,The ROOT BRANDS Präsentation- Berlin,https://www.eventbrite.com/e/the-root-brands-prasentation-berlin-tickets-645612794247,DE,Berlin,BE,Inge-Beisheim-Platz 1,10785,52.51087500000001,13.3762494,Berlin Marriott Hotel
39,2,2023-06-07,2023-06-08,TINCON Berlin 2023,https://www.eventbrite.de/e/tincon-berlin-2023-registrierung-463657049717,DE,Berlin,BE,Am Flutgraben 2,12435,52.4969441,13.4515658,Festsaal Kreuzberg
40,3,2023-06-20,2023-06-20,»Female StartAperitivo« Halbfinale in Berlin,https://www.eventbrite.de/e/female-startaperitivo-halbfinale-in-berlin-tickets-631374677657,DE,Berlin,Berlin,Rohrdamm 88,13629,52.5351693,13.2643893,Startup Incubator Berlin
41,3,2023-06-29,2023-06-30,International Cannabis Business Conference - Berlin B2B,https://www.eventbrite.com/e/international-cannabis-business-conference-berlin-b2b-tickets-453338255927,DE,Berlin,Berlin,Sonnenallee 225,12057,52.4738429,13.4591883,Estrel Berlin
42,3,2023-06-17,2023-06-17,Project Nova: Wrestling #7,https://www.eventbrite.de/e/project-nova-wrestling-7-tickets-477468279477,DE,Berlin,Berlin,Martin-Luther-Straße 77,10825,52.48825900000001,13.346111,DIE WEISSE ROSE
43,3,2023-06-08,2023-06-08,Indie Ground • 120-Minutes-Party • Monarch Berlin,https://www.eventbrite.co.uk/e/indie-ground-120-minutes-party-monarch-berlin-tickets-633886992057,DE,Berlin,BE,Skalitzer Straße 134,10999,52.4992921,13.4194699,Monarch Bar
44,3,2023-06-21,2023-06-21,Yoga in the park for International  Day of Yoga,https://www.eventbrite.co.uk/e/yoga-in-the-park-for-international-day-of-yoga-tickets-648221346497,DE,Berlin,BE,Branitzer Platz,14050,52.5158451,13.270435,Branitzer Platz
45,3,2023-06-15,2023-06-15,aMS Berlin 15.06.2023,https://www.eventbrite.fr/e/ams-berlin-15062023-registrierung-496411539277,DE,Berlin,BE,Winterfeldtstraße 21,10781,52.4963418,13.3581017,hubraum - tech incubator of Deutsche Telekom
46,3,2023-06-15,2023-06-15,BPD#17 – Rooftop BBQ Edition at Raisin,https://www.eventbrite.com/e/bpd17-rooftop-bbq-edition-at-raisin-tickets-646887276257,DE,Berlin,Berlin,"Schlesische Str. 33/34,",10997,52.4995333,13.4462048,Raisin DS
47,3,2023-06-12,2023-06-12,Speed Networking & AI for B2B Sales,https://www.eventbrite.ie/e/speed-networking-ai-for-b2b-sales-tickets-636464551607,DE,Berlin,BE,Rosenthaler Straße 72A,10119,52.529518,13.4018381,St. Oberholz
48,3,2023-06-14,2023-06-15,"RAP AM STRAND | Megaloh & Band, BSMG & Aisha Vibes - Live @ YAAM Beach",https://www.eventbrite.de/e/rap-am-strand-megaloh-band-bsmg-aisha-vibes-live-yaam-beach-tickets-624872700067,DE,Berlin,Berlin,An der Schillingbrücke 3,10243,52.5092548,13.43053150000003,YAAM Berlin
49,3,2023-06-18,2023-06-18,Mindful Moods • Yoga • Berlin,https://www.eventbrite.co.uk/e/mindful-moods-yoga-berlin-tickets-491017154527,DE,Berlin,BE,Cuvrystraße 7,10997,52.4991977,13.4450924,Lido
50,3,2023-06-10,2023-06-11,Maa Bhagwati Jagran in Berlin (Free Registration),https://www.eventbrite.de/e/maa-bhagwati-jagran-in-berlin-free-registration-tickets-635944155087,DE,Berlin,BE,Hasenheide 106,10967,52.4867607,13.4207795,Sri Ganesha Hindu Tempel e.V.
51,3,2023-06-17,2023-06-18,DAS 16+  FESTIVAL BERLIN // CARNIVAL EDITION,https://www.eventbrite.de/e/das-16-festival-berlin-carnival-edition-tickets-640069333607,DE,Berlin,Berlin,Kesselhaus,10435,52.5394,13.4137,Kesselhaus in der Kulturbrauerei
52,3,2023-06-06,2023-06-06,Startup Commons Berlin 2023,https://www.eventbrite.de/e/startup-commons-berlin-2023-tickets-611118831877,DE,Berlin,Berlin,Bouchéstraße 12,12435,52.4929454,13.449894599999993,MotionLab.Berlin
53,3,2023-06-09,2023-06-09,Festakt zur Verleihung des 15. Eva Luise Köhler Forschungspreises,https://www.eventbrite.de/e/festakt-zur-verleihung-des-15-eva-luise-kohler-forschungspreises-tickets-564530936227,DE,Berlin,BE,Jägerstraße 22-23,10117,52.51398,13.3942386,Berlin-Brandenburgische Akademie der Wissenschaften
54,3,2023-06-08,2023-06-08,"Stand up Show: ""Spicy Comedy""",https://www.eventbrite.com/e/stand-up-show-spicy-comedy-tickets-632301108637,DE,Berlin,10245,Wühlischstraße 43,10245,52.50861039999999,13.4609797,Süss War Gestern
55,3,2023-06-23,2023-06-25,Mellow Jam - Kulturfestival,https://www.eventbrite.de/e/mellow-jam-kulturfestival-tickets-636453618907,DE,Berlin,Berlin,An der Wuhlheide 256,12555,52.45544,13.56379000000004,Mellowpark
56,3,2023-06-19,2023-06-19,Wise Fools Comedy in English: Comedians vs. Philosophy,https://www.eventbrite.com/e/wise-fools-comedy-in-english-comedians-vs-philosophy-tickets-626352887347,DE,Berlin,BE,Kopenhagener Straße 16,10437,52.5491865,13.4081362,Kohlenquelle
57,3,2023-06-21,2023-06-21,Co-Founder Matching Event Berlin,https://www.eventbrite.de/e/co-founder-matching-event-berlin-tickets-616348162947,DE,Berlin,BE,Warschauer Platz 11-13,10245,52.50440819999999,13.4493547,WeWork - Warschauer Platz - Private Büroflächen und Coworking
58,3,2023-06-30,2023-07-01,Berlin Tekk pres. Die Gebrüder Brett,https://www.eventbrite.de/e/berlin-tekk-pres-die-gebruder-brett-tickets-623228803127,DE,Berlin,Berlin,Alexanderstraße 7,10178,52.52328979999999,13.4164776,ASeven Club & Eventlocation
59,4,2023-06-07,2023-06-07,Im Spotlight: KI-Startups und die Wissenschaft,https://www.eventbrite.com/e/im-spotlight-ki-startups-und-die-wissenschaft-tickets-630620652347,DE,Berlin,BE,Max-Urich-Straße 3,13355,52.53935070000001,13.3836954,AI Campus Berlin
60,4,2023-06-15,2023-06-15,KlumBum 2023 - DAS FINALE,https://www.eventbrite.de/e/klumbum-2023-das-finale-tickets-632238050027,DE,Berlin,BE,Revaler Straße 99,10245,52.507921,13.453509,Bar Zum schmutzigen Hobby
61,4,2023-06-17,2023-06-18,"TOP90s: 90s Pop, Eurodance, Trash *BIRTHDAY SPECIAL*",https://www.eventbrite.com/e/top90s-90s-pop-eurodance-trash-birthday-special-tickets-592314126497,DE,Berlin,Berlin,Revaler Straße 99,10245,52.5072813,13.45397939999998,Badehaus Szimpla
62,4,2023-06-24,2023-06-25,Ü30 Party Berlin – die größte Ü30 Party Berlins,https://www.eventbrite.de/e/u30-party-berlin-die-grote-u30-party-berlins-tickets-621062212797,DE,Berlin,Berlin,Köpenicker Straße 16-17,10997,52.50589000000001,13.434702099999981,Spindler & Klatt
63,4,2023-06-14,2023-06-14,"Mittwochs ganz ""OBEN""",https://www.eventbrite.de/e/mittwochs-ganz-oben-tickets-637950405837,DE,Berlin,BE,Große Präsidentenstraße 6-7,10178,52.5230484,13.4008546,Hotel Zoe by AMANO
64,4,2023-06-09,2023-06-10,After Dark Comedy at Zosch: A Late Night Comedy Show in Berlin,https://www.eventbrite.com/e/after-dark-comedy-at-zosch-a-late-night-comedy-show-in-berlin-tickets-640146965807,DE,Berlin,BE,Tucholskystraße 30,10117,52.5260125,13.3936047,Zosch
65,4,2023-06-07,2023-06-07,F&B Innovators Brunch Berlin,https://www.eventbrite.de/e/fb-innovators-brunch-berlin-tickets-630106895687,DE,Berlin,BE,Mollstraße 32,10249,52.5253301,13.4209716,KitchenTown Berlin
66,4,2023-06-10,2023-06-11,RAVE ME BACK SUMMER DREAM w/ 8 DJ`s Outdoor & Indoor,https://www.eventbrite.de/e/rave-me-back-summer-dream-w-8-djs-outdoor-indoor-tickets-629598926337,DE,Berlin,Berlin,Alexanderstraße 7,10178,52.5230016,13.416553700000009,A SEVEN CLUB
67,4,2023-06-13,2023-06-14,JAZZ JAM SESSION Night feat. Bar Bobu Jazz Trio,https://www.eventbrite.de/e/jazz-jam-session-night-feat-bar-bobu-jazz-trio-tickets-498641408877,DE,Berlin,BE,Müggelstraße 9,10247,52.51201479999999,13.470691,Bar Bobu
68,4,2023-06-10,2023-06-10,SATURDAY NIGHT LIVE STANDUP,https://www.eventbrite.com/e/saturday-night-live-standup-tickets-632713241337,DE,Berlin,Berlin,Stargarder Straße 33,10437,52.5436533,13.4244142,La Minga
69,4,2023-07-16,2023-07-16,Creatives hangout with coffee,https://www.eventbrite.com/e/creatives-hangout-with-coffee-tickets-541193944657,DE,Berlin,BE,Lucy-Lameck-Straße 32,12049,52.4838189,13.4228749,Bulbul Cafe
70,4,2023-07-02,2023-07-02,Live-Wrestling in Berlin | GWF  Summer Smash 8,https://www.eventbrite.de/e/live-wrestling-in-berlin-gwf-summer-smash-8-tickets-482995140467,DE,Berlin,Berlin,Am Flutgraben 2,12435,52.4967039,13.451584300000036,Festsaal Kreuzberg
71,4,2023-06-08,2023-06-08,Sundowner - Netzwerken über den Dächern Berlins,https://www.eventbrite.de/e/sundowner-netzwerken-uber-den-dachern-berlins-tickets-535788667327,DE,Berlin,BE,Ritterstraße 3,10969,52.50086899999999,13.4129875,Ritterstraße 3
72,4,2023-06-09,2023-06-09,SX TECH BERLIN SUMMER MEETUP,https://www.eventbrite.ie/e/sx-tech-berlin-summer-meetup-tickets-634540095507,DE,Berlin,BE,Ritterstraße 12-14,10969,52.5020693,13.4112796,Spiced Academy
73,4,2023-06-11,2023-06-11,Sonntagskonzert Nr. 6 | Traumverloren,https://www.eventbrite.de/e/sonntagskonzert-nr-6-traumverloren-tickets-460714097267,DE,Berlin,Berlin,Herbert-von-Karajan-Straße 1,10785,52.5100776,13.369992,Kammermusiksaal
74,4,2023-06-14,2023-06-14,AsiaBerlin Summit Satellite Event: UX Testing & Chinese Market Knowledge,https://www.eventbrite.de/e/asiaberlin-summit-satellite-event-ux-testing-chinese-market-knowledge-tickets-633846681487,DE,Berlin,Berlin,Rohrdamm 88,13629,52.5351693,13.2643893,Startup Incubator Berlin
75,4,2023-06-09,2023-06-09,Upland Community Meet Up & LIVE City Opening,https://www.eventbrite.com/e/upland-community-meet-up-live-city-opening-tickets-644036098307,DE,Berlin,BE,Schützenstraße 73,10117,52.50873869999999,13.3908872,LVL World of Gaming - Berlin
76,4,2023-06-07,2023-06-07,Demoday FLYACTS / REAKTOR.BERLIN,https://www.eventbrite.de/e/demoday-flyacts-reaktorberlin-tickets-606688520697,DE,Berlin,BE,Große Querallee,10557,52.5184527,13.3671312,TIPI AM KANZLERAMT Berlin
77,4,2023-06-17,2023-06-17,UNZENSIERT - Berlins Comedy Show,https://www.eventbrite.com/e/unzensiert-berlins-comedy-show-tickets-595221181577,DE,Berlin,BE,Kopenhagener Straße 16,10437,52.5491906,13.4081325,Kohlenquelle
78,4,2023-08-26,2023-08-26,Megamarsch 50/12 Berlin 2023,https://www.eventbrite.de/e/megamarsch-5012-berlin-2023-tickets-411049629507,DE,Berlin,,Buolstraße 14,13629,52.5453842,13.2585348,Sport Centrum Siemensstadt
79,5,2023-06-09,2023-06-09,Dizney in Drag: Once Upon a Parody,https://www.eventbrite.com/e/dizney-in-drag-once-upon-a-parody-tickets-643761165977,DE,Berlin,BE,Möckernstrasse 10,10963,52.50162599999999,13.381228,Tempodrom Berlin
80,5,2023-06-09,2023-06-09,SHABBY LATESHOW! Stand up Comedy im Mad Monkey Room (22:30 Uhr),https://www.eventbrite.de/e/shabby-lateshow-stand-up-comedy-im-mad-monkey-room-2230-uhr-tickets-490947135097,DE,Berlin,Berlin,Danziger Str. 1,10435,52.54172089999999,13.4121977,Mad Monkey Room
81,5,2023-06-23,2023-06-23,Comedy In English: Two Jews Comedy Show Berlin! June 23,https://www.eventbrite.com/e/comedy-in-english-two-jews-comedy-show-berlin-june-23-tickets-637350080247,DE,Berlin,BE,Grünberger Straße 84,10245,52.5109095,13.4613414,The Wall Comedy
82,5,2023-06-17,2023-06-18,BOLLYWOOD NIGHT - BERLIN,https://www.eventbrite.de/e/bollywood-night-berlin-tickets-648988591347,DE,Berlin,BE,Seddiner Straße 8,10315,52.5136117,13.5219524,37 CLUB
83,5,2023-06-09,2023-06-10,7. Rare Disease Symposium,https://www.eventbrite.de/e/7-rare-disease-symposium-tickets-564418881067,DE,Berlin,D,Scharnhorststraße 3,10115,52.5319499,13.3731065,STORZ Besucher- und Informationszentrum
84,5,2023-06-09,2023-06-10,STAGETIME - Songwriter Night,https://www.eventbrite.de/e/stagetime-songwriter-night-tickets-498642050797,DE,Berlin,BE,Müggelstraße 9,10247,52.51201479999999,13.470691,Bar Bobu
85,5,2023-10-20,2023-10-21,Thomas Lizzara Birthday @ Kesselhaus Berlin,https://www.eventbrite.de/e/thomas-lizzara-birthday-kesselhaus-berlin-tickets-600798924757,DE,Berlin,BE,Knaackstraße 97,10435,52.53938560000001,13.4137106,Kesselhaus in der Kulturbrauerei
86,5,2023-07-01,2023-07-02,Erasmus Summer Festival - Open Air & Indoor Party,https://www.eventbrite.de/e/erasmus-summer-festival-open-air-indoor-party-tickets-646841138257,DE,Berlin,BE,Alexanderstraße 40,10179,52.51682909999999,13.4178901,The Social Hub Berlin
87,5,2023-06-09,2023-06-09,Benefizkonzert für die Ukraine,https://www.eventbrite.de/e/benefizkonzert-fur-die-ukraine-tickets-640178098927,DE,Berlin,BE,Frankfurter Allee 6a,10247,52.5147888,13.4559542,Georg-Friedrich-Händel-Gymnasium
88,5,2023-06-16,2023-06-16,Tantra für Beginner 2.0| Berlin Edition,https://www.eventbrite.de/e/tantra-fur-beginner-20-berlin-edition-tickets-619959444387,DE,Berlin,BE,Lübbener Straße 9,10997,52.499031,13.4374856,Kundalini Yoga Kreuzberg - Kreuzbergyoga Studio
89,5,2023-06-12,2023-06-12,KI im Gesundheitswesen: Alles wird gut…wird alles gut?,https://www.eventbrite.de/e/ki-im-gesundheitswesen-alles-wird-gutwird-alles-gut-tickets-632339704077,DE,Berlin,BE,Am Hamburger Bahnhof 4,10557,52.5294445,13.3714956,REINHARD BÄR restaurant und café
90,5,2023-06-10,2023-06-10,English Stand Up - Culture Shock  - Asian Invasion #5,https://www.eventbrite.co.uk/e/english-stand-up-culture-shock-asian-invasion-5-tickets-625141975477,DE,Berlin,BE,Bergstraße 2,10115,52.5294848,13.3956931,Z-Bar
91,5,2023-06-14,2023-06-14,Medizin der Zukunft,https://www.eventbrite.de/e/medizin-der-zukunft-tickets-632608086817,DE,Berlin,BE,Hohenzollerndamm 208a,10717,52.4944648,13.3293486,Eventlocation Wasserwerk
92,5,2023-06-30,2023-06-30,Transformational Breathwork,https://www.eventbrite.com/e/transformational-breathwork-tickets-512903045817,DE,Berlin,Berlin,Böttgerstraße 16,13357,52.5487872,13.380952900000011,YOGA at Lobe Block UG i.g.
93,5,2023-06-10,2023-06-11,Abriss Party,https://www.eventbrite.com/e/abriss-party-tickets-634556013117,DE,Berlin,BE,Stadtbahnbogen 159/160,10178,52.5222181,13.3984601,Mokka Mitte Bar
94,5,2023-11-02,2023-11-02,Tech Jobs Fair - Berlin 2023,https://www.eventbrite.com/e/tech-jobs-fair-berlin-2023-tickets-491695844507,DE,Berlin,BE,Mariendorfer Damm 1,12099,52.45314,13.38517,The Drivery GmbH
95,5,2023-06-15,2023-06-15,IMA Europe Berlin Event,https://www.eventbrite.co.uk/e/ima-europe-berlin-event-tickets-607442265167,DE,Berlin,BE,Invalidenstraße 3,10115,52.5331269,13.3972411,Villa Elisabeth
96,5,2023-06-17,2023-06-18,Team 80s • 80s Pop Disco // New Wave // NDW // Indie • Astra Berlin,https://www.eventbrite.co.uk/e/team-80s-80s-pop-disco-new-wave-ndw-indie-astra-berlin-tickets-604903411387,DE,Berlin,BE,Revaler Straße 99,10245,52.5076937,13.4519072,Astra Kulturhaus
97,5,2023-06-08,2023-06-08,Clouding it Up with Guest Comedians,https://www.eventbrite.com/e/clouding-it-up-with-guest-comedians-tickets-633901365047,DE,Berlin,BE,Donaustraße 112,12043,52.4831996,13.4341756,Valentin Stüberl
98,5,2023-06-09,2023-06-09,Weitersagen! singt Westernhagen,https://www.eventbrite.de/e/weitersagen-singt-westernhagen-tickets-572908664237,DE,Berlin,Berlin,Am Juliusturm 62,13599,52.5397012,13.2165944,Freilichtbühne an der Zitadelle
99,6,2023-06-17,2023-06-18,MANN SEIN 2023,https://www.eventbrite.de/e/mann-sein-2023-tickets-359490414507,DE,Berlin,Berlin,"Tegeler Seeterrassen, Wilkestraße 1",13507,52.5885778,13.274687,Berlin
100,6,2023-06-09,2023-06-09,DJ night,https://www.eventbrite.de/e/dj-night-tickets-591297525817,DE,Berlin,BE,Chausseestraße 33,10115,52.532892,13.380592,INNSiDE by Meliá Berlin Mitte
101,6,2023-06-08,2023-06-08,The League BERLIN Kick Off - Community & Empowerment im Sport,https://www.eventbrite.de/e/the-league-berlin-kick-off-community-empowerment-im-sport-tickets-630814301557,DE,Berlin,BE,Michaelkirchstraße 20,10179,52.5112256,13.4230885,Michaelkirchstraße 20
102,6,2023-06-18,2023-06-18,Pilates and Tee,https://www.eventbrite.com/e/pilates-and-tee-tickets-632199554887,DE,Berlin,BE,Fischerinsel 3,10179,52.51330000000001,13.409625,Fischerinsel 3
103,6,2023-06-08,2023-06-08,KlumBum 2023 Halbfinale,https://www.eventbrite.de/e/klumbum-2023-halbfinale-tickets-632236776217,DE,Berlin,BE,Revaler Straße 99,10245,52.507921,13.453509,Bar Zum schmutzigen Hobby
104,6,2023-06-13,2023-06-13,"""Comedy sein Bruder"" Stand up Show am Savignyplatz",https://www.eventbrite.com/e/comedy-sein-bruder-stand-up-show-am-savignyplatz-tickets-644387509387,DE,Berlin,BE,Grolmanstraße 28,10623,52.50451630000001,13.3233113,Terzo Mondo
105,6,2023-06-22,2023-06-22,June Edition: Dose of Pleasure at Club OST,https://www.eventbrite.de/e/june-edition-dose-of-pleasure-at-club-ost-tickets-640448858777,DE,Berlin,BE,"Alt-Stralau 1-2,",10245,52.49715,13.46502,Club OST
106,6,2023-06-14,2023-06-14,In Person Event: Web Development Sprint,https://www.eventbrite.de/e/in-person-event-web-development-sprint-tickets-621807592247,DE,Berlin,BE,Rudi-Dutschke-Straße 26,10969,52.50689269999999,13.3914371,Le Wagon Berlin - Coding Bootcamp
107,6,2023-06-17,2023-06-17,Paartantra Für Beginner 2.0 | Berlin Edition,https://www.eventbrite.de/e/paartantra-fur-beginner-20-berlin-edition-tickets-620014458937,DE,Berlin,BE,Lübbener Straße 9,10997,52.499031,13.4374856,Kundalini Yoga Kreuzberg - Kreuzbergyoga Studio
108,6,2023-06-10,2023-06-10,Mesa informativa con Instituciones y profesionales,https://www.eventbrite.de/e/mesa-informativa-con-instituciones-y-profesionales-tickets-624429444277,DE,Berlin,BE,Rosenstraße 18,10178,52.52165989999999,13.404826,Instituto Cervantes Berlin - Das spanische Kulturinstitut
109,6,2023-06-09,2023-06-10,Spring in Berlin '23 - Pin Collector Meeting,https://www.eventbrite.de/e/spring-in-berlin-23-pin-collector-meeting-tickets-554440836467,DE,Berlin,,Kurfürstendamm 224,10719,52.503131,13.32956390000004,Hard Rock Cafe Berlin
110,6,2023-06-20,2023-06-20,Preisverleihung andersartig gedenken on stage,https://www.eventbrite.de/e/preisverleihung-andersartig-gedenken-on-stage-tickets-599708894447,DE,Berlin,BE,Schönhauser Allee 176,10119,52.5315638,13.4117398,Pfefferberg Theater
111,6,2023-06-11,2023-06-11,Darkhaus - the most twisted English dark comedy night in town!,https://www.eventbrite.de/e/darkhaus-the-most-twisted-english-dark-comedy-night-in-town-tickets-638978179937,DE,Berlin,BE,Donaustraße 112,12043,52.4831996,13.4341756,Valentin Stüberl
112,6,2023-06-09,2023-06-09,OOO Friday Drinks,https://www.eventbrite.com.ar/e/ooo-friday-drinks-tickets-632653602957,DE,Berlin,BE,Alexanderstraße 40,10179,52.5168291,13.4178891,The Social Hub Berlin
113,6,2023-06-10,2023-06-11,Dirty Dancing Party - 80s & 90s Love - 3 Floors -,https://www.eventbrite.de/e/dirty-dancing-party-80s-90s-love-3-floors--tickets-640510974567,DE,Berlin,BE,Revaler Straße 99,10245,52.5072762,13.4547738,cassiopeia Club
114,6,2023-07-01,2023-07-02,Peinlo Pop Party • Berlin,https://www.eventbrite.co.uk/e/peinlo-pop-party-berlin-tickets-632554767337,DE,Berlin,BE,Revaler Str. 99,10245,52.5071701,13.4529196,Badehaus Berlin
115,6,2023-06-20,2023-06-20,Run with Maxi and Friends,https://www.eventbrite.co.uk/e/run-with-maxi-and-friends-tickets-619511213717,DE,Berlin,BE,Kurfürstendamm 26-A,10719,52.503426,13.3281742,lululemon
116,6,2023-06-15,2023-06-15,"""Rise & Grind"" Network Berlin - Vol.3 (Founder Meetup)",https://www.eventbrite.de/e/rise-grind-network-berlin-vol3-founder-meetup-tickets-636409998437,DE,Berlin,BE,Boxhagener Straße 78,10245,52.5079679,13.4695041,Boxhagener Str. 78
117,6,2023-06-15,2023-06-15,Digisurance 2023,https://www.eventbrite.com/e/digisurance-2023-tickets-529071556267,DE,Berlin,Berlin,Karl-Marx-Allee 33,10178,52.52070149999999,13.4229964,Kino International
118,6,2023-06-15,2023-06-17,Data Days 2023,https://www.eventbrite.de/e/data-days-2023-tickets-616498001117,DE,Berlin,BE,Krausenstraße 9-10,10117,52.50939520000001,13.3911163,Mindspace Krausenstraße
119,7,2023-06-22,2023-06-22,MBOpen Air,https://www.eventbrite.de/e/mbopen-air-tickets-626822431767,DE,Berlin,Berlin,Am Juliusturm 62,13599,52.5397012,13.2165944,Freilichtbühne an der Zitadelle
120,7,2023-06-18,2023-06-18,Black Future Frequency Festival,https://www.eventbrite.de/e/black-future-frequency-festival-tickets-637950887277,DE,Berlin,BE,Köpenicker Straße 18-20,10997,52.5056659,13.4326195,SAGE Berlin
121,7,2023-06-08,2023-06-08,betabreakfast,https://www.eventbrite.com/e/betabreakfast-registration-626090472457,DE,Berlin,BE,Rudi-Dutschke-Straße 23,10969,52.50659969999999,13.3915696,betahaus | Kreuzberg
122,7,2023-06-10,2023-06-10,Sommerfestival der Kreativmolkerei e.V.,https://www.eventbrite.de/e/sommerfestival-der-kreativmolkerei-ev-tickets-593547314997,DE,Berlin,Berlin,Am Juliusturm 62,13599,52.5397012,13.2165944,Freilichtbühne an der Zitadelle
123,7,2023-06-09,2023-06-09,The Dark Comedy OPEN MIC #88 - English Stand-Up  *TRIGGER WARNING*,https://www.eventbrite.co.uk/e/the-dark-comedy-open-mic-88-english-stand-up-trigger-warning-tickets-632259173207,DE,Berlin,BE,Kurfürstenstraße 9,10785,52.4992295,13.3674642,Kara Kas Bar
124,7,2023-06-21,2023-06-21,HR Breakfast Club,https://www.eventbrite.de/e/hr-breakfast-club-tickets-647048809407,DE,Berlin,BE,Eichhornstr. 3,10785,52.5064622,13.3731799,Brand New Linkedin Office@ WeWork
125,7,2023-06-22,2023-06-22,Open Business Forum am 22.06.2023,https://www.eventbrite.de/e/open-business-forum-am-22062023-tickets-483137325747,DE,Berlin,BE,Kurfürstendamm 28,10719,52.5031141,13.3269197,Kurfürstendamm 28
126,7,2023-07-01,2023-07-01,Beats on Bord - MS Lex - Thomas Lizzara,https://www.eventbrite.de/e/beats-on-bord-ms-lex-thomas-lizzara-tickets-641437495817,DE,Berlin,,Mühlenstraße 70,10243,52.5042306,13.4416076,Boat - MS Lex / Boat Terminal: Mercedes Benz Arena
127,7,2023-07-07,2023-07-07,"Monthly #FirstFridayFair Business, Data & Tech (Virtual Event) - #TXL",https://www.eventbrite.com/e/monthly-firstfridayfair-business-data-tech-virtual-event-txl-tickets-484678615787,DE,Virtual Event Only,berlin,Virtual Event Only,,52.52000659999999,13.404953999999975,Virtual Event [Online Only]
128,7,2023-06-29,2023-06-30,Gründerszene Spätschicht Berlin - Summer Edition - 29.06.23,https://www.eventbrite.de/e/grunderszene-spatschicht-berlin-summer-edition-290623-tickets-483117315897,DE,Berlin,Berlin,Am Flutgraben 2,12435,52.49654409999999,13.4528982,Oberhafenkantine Berlin
129,7,2023-07-06,2023-07-06,Sommerfest,https://www.eventbrite.com/e/sommerfest-tickets-634601830157,DE,Berlin,BE,Müllerstraße 74,13349,52.55833329999999,13.3391667,Centre Français de Berlin - deutsch-französisches Kulturzentrum gGmbH
130,7,2023-06-11,2023-06-11,Sunday Slips OPen Stage,https://www.eventbrite.de/e/sunday-slips-open-stage-tickets-515296284057,DE,Berlin,BE,Weserstr. 20,12045,52.486991,13.432565,Zum Krokodil
131,7,2023-06-07,2023-06-07,Relaxing Sound Bath,https://www.eventbrite.de/e/relaxing-sound-bath-tickets-622350064797,DE,Berlin,BE,Köpenicker Straße 40,10179,52.5086808,13.425587,Denizen House
132,7,2023-07-01,2023-07-01,Nordic Lights Festival,https://www.eventbrite.de/e/nordic-lights-festival-tickets-568165858377,DE,Berlin,BE,Holzmarktstraße 25,10243,52.51172949999999,13.4263927,Säälchen
133,7,2023-06-28,2023-06-28,Finding Product-Market Fit: Berlin vol. 2,https://www.eventbrite.com/e/finding-product-market-fit-berlin-vol-2-tickets-627139961507,DE,Berlin,BE,Lohmühlenstraße 65,12435,52.4940556,13.4463246,Factory Berlin Görlitzer Park
134,7,2023-06-08,2023-06-08,Fashion Garden im ÆDEN - Berlin -  Vintage Kilo Pop-up,https://www.eventbrite.de/e/fashion-garden-im-den-berlin-vintage-kilo-pop-up-tickets-649615656917,DE,Berlin,BE,Schleusenufer 3,10997,52.4976865,13.4498047,ÆDEN
135,7,2023-06-09,2023-06-09,SHABBY EARLYSHOW! - Stand up Comedy im Mad Monkey Room (18:00 Uhr),https://www.eventbrite.de/e/shabby-earlyshow-stand-up-comedy-im-mad-monkey-room-1800-uhr-tickets-490948208307,DE,Berlin,Berlin,Danziger Str. 1,10435,52.54172089999999,13.4121977,Mad Monkey Room
136,7,2023-06-08,2023-06-08,The BERlin BlockCHAIN Meet Up,https://www.eventbrite.co.uk/e/the-berlin-blockchain-meet-up-tickets-640659278147,DE,Berlin,BE,Dudenstr. 48-64,10965,52.4851482,13.3766136,Golgatha Biergarten
137,7,2023-07-01,2023-07-01,HYPERCON Sneakerconvention X HYPENEEDZ at KaDeWe Berlin,https://www.eventbrite.de/e/hypercon-sneakerconvention-x-hypeneedz-at-kadewe-berlin-tickets-644853382827,DE,Berlin,BE,Tauentzienstraße 21-24,10789,52.5016021,13.340993,KaDeWe - Kaufhaus des Westens
138,7,2023-06-11,2023-06-11,BACKYARD® // Ritter Butzke -  Party & Preloved Kilo Pop-up,https://www.eventbrite.de/e/backyard-ritter-butzke-party-preloved-kilo-pop-up-tickets-650190927567,DE,Berlin,BE,Ritterstraße 24-26,10243,52.5022132,13.4080541,Ritter Butzke
139,8,2023-06-07,2023-06-07,CleanMed Berlin,https://www.eventbrite.com/e/cleanmed-berlin-tickets-558578151287,DE,Berlin,BE,Luisenstraße 58/59,10117,52.5258225,13.3794205,Langenbeck-Virchow-Haus
140,8,2023-06-24,2023-06-24,Open House | Berlin School of Popular Arts (SRH Berlin),https://www.eventbrite.de/e/open-house-berlin-school-of-popular-arts-srh-berlin-tickets-609280844407,DE,Berlin,BE,Potsdamer Straße 188,10783,52.4916422,13.3605242,SRH Berlin School of Popular Arts (SOPA)
141,8,2023-06-10,2023-06-10,La comunidad organizada: la voz de las familias,https://www.eventbrite.de/e/entradas-la-comunidad-organizada-la-voz-de-las-familias-624432192497,DE,Berlin,BE,Rosenstraße 18,10178,52.52165989999999,13.404826,Instituto Cervantes Berlin - Das spanische Kulturinstitut
142,8,2023-06-06,2023-06-06,Tuesday stand up Comedy It's a mic,https://www.eventbrite.com/e/tuesday-stand-up-comedy-its-a-mic-tickets-631206925907,DE,Berlin,BE,Grünberger Straße 84,10245,52.5109095,13.4613414,The Wall Comedy
143,8,2023-06-25,2023-06-25,Desi Democracy - Hindi Comedy Show,https://www.eventbrite.de/e/desi-democracy-hindi-comedy-show-tickets-515901704887,DE,Berlin,BE,Torstraße 218,10115,52.5274009,13.3894661,Galerie & Bar Tor218 Artlab
144,8,2023-06-08,2023-06-08,D&AD Shift Germany Graduate Showcase Private View,https://www.eventbrite.co.uk/e/dad-shift-germany-graduate-showcase-private-view-tickets-621624474537,DE,Berlin,BE,Glogauer Straße 2,10999,52.4947542,13.4377039,"Friends Space @ Glogauer Straße 2 Backyard, 10999 Berlin (Kreuzberg)"
145,8,2023-06-16,2023-06-17,King Kong Kicks + Peinlo Pop Party • Badehaus Berlin,https://www.eventbrite.co.uk/e/king-kong-kicks-peinlo-pop-party-badehaus-berlin-tickets-604887353357,DE,Berlin,BE,Revaler Str. 99,10245,52.5071701,13.4529196,Badehaus Berlin
146,8,2023-06-06,2023-06-07,Adtrader Conference 2023,https://www.eventbrite.de/e/adtrader-conference-2023-tickets-472098277657,DE,Berlin,BE,Karl-Marx-Allee 131A,10243,52.51692500000001,13.4498899,Kosmos
147,8,2023-06-08,2023-06-08,Summer Session am Potsdamer Platz,https://www.eventbrite.de/e/summer-session-am-potsdamer-platz-tickets-641174679727,DE,Berlin,BE,Alte Potsdamer Straße 7,10785,52.5075315,13.3736933,Manifesto Market Potsdamer Platz
148,8,2023-06-24,2023-06-24,Open House | Berlin School of Design and Communication (SRH Berlin),https://www.eventbrite.de/e/open-house-berlin-school-of-design-and-communication-srh-berlin-tickets-608620589567,DE,Berlin,BE,Prinzenstraße 84.1,10969,52.5037366,13.4097239,SRH Berlin School of Design and Communication (BSDC)
149,8,2023-06-06,2023-06-06,Стендап шоу: Открытый Женский Микрофон,https://www.eventbrite.de/e/640047247547,DE,Berlin,BE,Kopenhagener Str. 16,10437,52.5491492,13.4085405,Kohlenquelle
150,8,2023-06-17,2023-06-17,In Person Event: Women's Data Day,https://www.eventbrite.de/e/in-person-event-womens-data-day-tickets-622413805447,DE,Berlin,BE,Rudi-Dutschke-Straße 26,10969,52.50689269999999,13.3914371,Le Wagon Berlin - Coding Bootcamp
151,8,2023-06-26,2023-06-26,Conscious Cuddling and Authentic Relating Workshop,https://www.eventbrite.de/e/conscious-cuddling-and-authentic-relating-workshop-tickets-636639384537,DE,Berlin,Berlin,Milastraße 4,10437,52.54552169999999,13.4108101,Life Artists Creators Hub
152,8,2023-06-17,2023-06-17,DEVIN GRAY SOLO + TRYON - LÄUTERUNG,https://www.eventbrite.de/e/devin-gray-solo-tryon-lauterung-tickets-614973461177,DE,Berlin,BE,Revaler Straße 99,10245,52.50670330000001,13.4535486,House of Music
153,8,2023-06-10,2023-06-10,Do you know these gays? 10.06.2023 Saturday edition!,https://www.eventbrite.de/e/do-you-know-these-gays-10062023-saturday-edition-tickets-642787142647,DE,Berlin,BE,Ziegelstraße 29,10117,52.52364069999999,13.3906125,BAR SAINT JEAN
154,8,2023-06-14,2023-06-14,"Exclusive Screening of documentary ""We're All Going to Die"" by Ben Knight",https://www.eventbrite.de/e/exclusive-screening-of-documentary-were-all-going-to-die-by-ben-knight-tickets-633921254537,DE,Berlin,BE,Kottbusser Damm 22,10178,52.49024,13.42342,"Moviemento Kino, Cinema 2"
155,8,2023-06-13,2023-06-13,"Vision Dance, Conscious Dance, Ecstatic Dance",https://www.eventbrite.de/e/vision-dance-conscious-dance-ecstatic-dance-tickets-507613233847,DE,Berlin,BE,Moosdorfstraße 7-9,12435,52.4880179,13.4604972,Urban Healing Unit
156,8,2023-06-11,2023-06-11,GRAND OPENING - 11.06.2023,https://www.eventbrite.de/e/grand-opening-11062023-tickets-624290568897,DE,Berlin,,Pfuelstraße 5,10997,52.502697,13.4403954,Tanzschule Bebop
157,8,2023-06-14,2023-06-14,Berlin Travel Massive Mingle - Meet Berlin Creators,https://www.eventbrite.com/e/berlin-travel-massive-mingle-meet-berlin-creators-tickets-641390114097,DE,Berlin,BE,Alte Schönhauser Straße 2,10119,52.528586,13.4091013,Selina Berlin Mitte
158,8,2023-06-23,2023-06-24,ZEITMASCHINE 80s 90s 2000s,https://www.eventbrite.de/e/zeitmaschine-80s-90s-2000s-tickets-600645255127,DE,Berlin,Berlin,Alexanderstraße 7,10178,52.5232964,13.41646209999999,ASeven Club
159,9,2023-06-11,2023-06-11,Emotional Release + Reconnect Breathwork,https://www.eventbrite.de/e/emotional-release-reconnect-breathwork-tickets-641965154057,DE,Berlin,BE,Böckhstraße 21,10967,52.49338880000001,13.4197042,La Caminada Tanzstudio
160,9,2023-06-09,2023-06-09,SHABBY! - Stand up Comedy im Mad Monkey Room (20:00 Uhr),https://www.eventbrite.de/e/shabby-stand-up-comedy-im-mad-monkey-room-2000-uhr-tickets-490944186277,DE,Berlin,Berlin,Danziger Str. 1,10435,52.54172089999999,13.4121977,Mad Monkey Room
161,9,2023-06-24,2023-06-25,LASS ZOCKEN • Indie vs HipHop • Lido Berlin,https://www.eventbrite.co.uk/e/lass-zocken-indie-vs-hiphop-lido-berlin-tickets-626132688727,DE,Berlin,BE,Cuvrystraße 7,10997,52.4991977,13.4450924,Lido
162,9,2023-06-13,2023-06-13,Evening Shine  Resilienz - fit im Umgang mit Krisen und turbulenten Zeiten,https://www.eventbrite.de/e/evening-shine-resilienz-fit-im-umgang-mit-krisen-und-turbulenten-zeiten-tickets-557745751557,DE,Berlin,Berlin,Käthe-Niederkirchner-Straße 18,10407,52.5297984,13.4329674,Käthe-Niederkirchner-Straße 18
163,9,2023-06-22,2023-06-22,Open House - Ironhack Germany,https://www.eventbrite.com/e/open-house-ironhack-germany-tickets-641216033417,DE,Berlin,Berlin,Storkower Straße 132,10407,52.5329612,13.4532178,Ironhack Berlin
164,9,2023-06-07,2023-06-07,ATEMREISE - Conscious Breathwork,https://www.eventbrite.de/e/atemreise-conscious-breathwork-tickets-532345930007,DE,Berlin,BE,Ohlauer Straße 10,10999,52.4967903,13.4310927,Praxis in der Remise
165,9,2023-06-09,2023-06-09,HOWLS FROM THE NORDIC FORESTS,https://www.eventbrite.com/e/howls-from-the-nordic-forests-tickets-633888817517,DE,Berlin,BE,Rauchstraße 1,10787,52.50858230000001,13.3507914,Nordic Embassies - Felleshus
166,9,2023-06-23,2023-06-24,Revolutionary Egyptian Music Night with Bahiyya - ليلة موسيقية مصرية ثورية,https://www.eventbrite.co.uk/e/revolutionary-egyptian-music-night-with-bahiyya--tickets-647095288427,DE,Berlin,BE,Kantstraße 12A,10623,52.50586329999999,13.3284748,Quasimodo
167,9,2023-06-06,2023-06-06,Laughing Spree: English Comedy on a BOAT (FREE SHOTS) 06.06.,https://www.eventbrite.de/e/laughing-spree-english-comedy-on-a-boat-free-shots-0606-registration-567971567247,DE,Berlin,Berlin,Mühlenstraße 73,10243,52.50299099999999,13.44417210000006,Floating Lounge
168,9,2023-06-09,2023-06-09,English Comedy Berlin with Pizza and Shots,https://www.eventbrite.de/e/english-comedy-berlin-with-pizza-and-shots-tickets-550816405697,DE,Berlin,Berlin,Schönhauser Allee 184,10119,52.529793,13.409916,Comedy Club Kookaburra
169,9,2023-06-15,2023-06-15,Cacao Orgasmic Breath Ceremony,https://www.eventbrite.com/e/cacao-orgasmic-breath-ceremony-tickets-643111603117,DE,Berlin,Berlin,Milastraße 4,10437,52.5457803,13.411090699999932,Life Artists Creators Hub
170,9,2023-06-11,2023-06-11,Clown Hops & Hopsi - Sommer-Spezial,https://www.eventbrite.de/e/clown-hops-hopsi-sommer-spezial-tickets-542715335177,DE,Berlin,Berlin,Am Juliusturm 62,13599,52.5397012,13.2165944,Freilichtbühne an der Zitadelle
171,9,2023-06-07,2023-06-07,Exklusive Veranstaltung für private Vermieter,https://www.eventbrite.com/e/exklusive-veranstaltung-fur-private-vermieter-tickets-640481335917,DE,Berlin,BE,Alexanderstraße 40,10179,52.51682909999999,13.4178901,The Social Hub Berlin
172,9,2023-07-08,2023-07-08,Kiezsalon w/ Cucina Povera and Martyna Basta at Brücke Museum,https://www.eventbrite.de/e/kiezsalon-w-cucina-povera-and-martyna-basta-at-brucke-museum-tickets-621724874837,DE,Berlin,Berlin,Bussardsteig 9,14195,52.4669094,13.2746775,Brücke-Museum
173,9,2023-06-08,2023-06-08,"Uplink x Junico ""IPAs & APIs"" Freelancer Meetup",https://www.eventbrite.de/e/uplink-x-junico-ipas-apis-freelancer-meetup-tickets-634743072617,DE,Berlin,BE,Neue Bahnhofstraße 30,10245,52.50554150000001,13.4693127,Straßenbräu
174,9,2023-06-15,2023-06-15,Projektbesichtigung in Berlin am 15.06.2023,https://www.eventbrite.de/e/projektbesichtigung-in-berlin-am-15062023-tickets-621653752107,DE,Berlin,B,Erasmusstraße 14,10553,52.52629,13.3253,THE FUTURE IS BRIGHT
175,9,2023-06-12,2023-06-12,dash.js face-to-face Meeting 2023,https://www.eventbrite.de/e/dashjs-face-to-face-meeting-2023-tickets-597581391027,DE,Berlin,Berlin,Kaiserin-Augusta-Allee 31,10589,52.526,13.314487500000041,Fraunhofer FOKUS
176,9,2023-06-15,2023-06-15,Elevator Pitch Workshop,https://www.eventbrite.de/e/elevator-pitch-workshop-tickets-648113193007,DE,Berlin,BE,Luxemburger Strasse 20a,13353,52.5434981,13.351437,Berliner Hochschule für Technik (BHT)
177,9,2023-06-27,2023-06-28,Awin ThinkTank DACH 2023,https://www.eventbrite.de/e/awin-thinktank-dach-2023-tickets-469801427717,DE,Berlin,BE,Wohlrabedamm 7,13629,52.5319252,13.2779827,TEC Event Campus
178,9,2023-06-28,2023-06-28,J.A.W with Jeff Parker ETA IVtet - Mondays at the Enfield Tennis Academy,https://www.eventbrite.de/e/jaw-with-jeff-parker-eta-ivtet-mondays-at-the-enfield-tennis-academy-tickets-631350144277,DE,Berlin,BE,Schleusenufer 3,10997,52.4976865,13.4498047,ÆDEN
179,10,2023-06-13,2023-06-14,INDUSTRY.forward SUMMIT 2023,https://www.eventbrite.de/e/industryforward-summit-2023-tickets-524652879887,DE,Berlin,,Spreespeicher: Stralauer Allee 2,10245,52.5018407,13.4489888,"Stadion an der Alten Försterei, 1. FC Union Berlin (13.06.) & Spreespeicher Berlin (14.06.)"
180,10,2023-06-06,2023-06-06,Tantra Yoga,https://www.eventbrite.de/e/tantra-yoga-tickets-507619472507,DE,Berlin,BE,Moosdorfstraße 7-9,12435,52.4880179,13.4604972,Urban Healing Unit
181,10,2023-06-29,2023-06-29,"Maria Stuart. Anatomie (eines Dramas), tschechisch-deutsche Koproduktion",https://www.eventbrite.com/e/maria-stuart-anatomie-eines-dramas-tschechisch-deutsche-koproduktion-tickets-630228880547,DE,Berlin,BE,Wilhelmstraße 44,10117,52.51149729999999,13.384266,Botschaft der Tschechischen Republik
182,10,2023-06-07,2023-06-07,Women in Sales Network - After Work Event - presented by HubSpot,https://www.eventbrite.com/e/women-in-sales-network-after-work-event-presented-by-hubspot-tickets-638070805957,DE,Berlin,BE,Am Postbahnhof 17,10243,52.5080101,13.4380307,HubSpot
183,10,2023-06-24,2023-06-24,More Town Soul - The Best of Motown and more,https://www.eventbrite.de/e/more-town-soul-the-best-of-motown-and-more-tickets-515963951067,DE,Berlin,Berlin,Am Juliusturm 62,13599,52.5397012,13.2165944,Freilichtbühne an der Zitadelle
184,10,2023-06-16,2023-06-17,"Die offiziellen AStA FRESENIUS Hochschul Partys/ Fr, 16.6. + Sa, 24.6.",https://www.eventbrite.de/e/die-offiziellen-asta-fresenius-hochschul-partys-fr-166-sa-246-tickets-634064783837,DE,Berlin,Berlin,Revaler Straße 99,10245,52.507211,13.452692999999954,Haubentaucher
185,10,2023-06-17,2023-06-17,Open Campus Berlin,https://www.eventbrite.co.uk/e/open-campus-berlin-tickets-626088536667,DE,Berlin,BE,Cuvrystraße 4,10997,52.4999974,13.4459132,SAE Institute Berlin
186,10,2023-06-13,2023-06-13,Soundbath and Emotional Release,https://www.eventbrite.de/e/soundbath-and-emotional-release-tickets-639278728887,DE,Berlin,BE,Fichtestraße 25,10967,52.4898681,13.4136262,Fichtestraße 25
187,10,2023-07-02,2023-07-02,Berlins größtes Speed Dating Event,https://www.eventbrite.de/e/berlins-grotes-speed-dating-event-tickets-449406074667,DE,Berlin,BE,Berlin,10115,52.52000659999999,13.404954,Berlin
188,10,2023-06-19,2023-06-19,Arabic Short Movies night,https://www.eventbrite.com/e/arabic-short-movies-night-tickets-631728606267,DE,Berlin,BE,Müllerstraße 74,13349,52.55844500000001,13.3391733,City-Kino Wedding
189,10,2023-06-10,2023-06-10,Ecstatic Dance + Meditation,https://www.eventbrite.de/e/ecstatic-dance-meditation-tickets-632071070587,DE,Berlin,BE,56 Dietzgenstraße,13156,52.5858719,13.4028493,Green Yoga Pankow
190,10,2023-06-10,2023-06-11,SATURDAY NIGHT LIVE LATE SHOW: Comedy & Party & BS,https://www.eventbrite.com/e/saturday-night-live-late-show-comedy-party-bs-tickets-632714856167,DE,Berlin,Berlin,Stargarder Straße 33,10437,52.5436533,13.4244142,La Minga
191,10,2023-07-16,2023-07-16,Gracie Academy Berlin: Open Mat,https://www.eventbrite.de/e/gracie-academy-berlin-open-mat-tickets-589123092027,DE,Berlin,Berlin,Lobeckstraße 36,10969,52.5037617,13.4077196,Fenriz Gym
192,10,2023-06-08,2023-06-08,AfricArena Berlin Summit 2023,https://www.eventbrite.com/e/africarena-berlin-summit-2023-tickets-632701044857,DE,Berlin,NY,Lohmühlenstraße 65,12435,52.4940361,13.4462696,Code Venue
193,10,2023-06-27,2023-06-27,Singularity Salon - Transhumanism,https://www.eventbrite.de/e/singularity-salon-transhumanism-tickets-640449139617,DE,Berlin,BE,Friedrichstraße 181,10117,52.5125702,13.3892893,Q Club
194,10,2023-06-06,2023-06-06,"Bier, Kaltgetränke & Pretzl",https://www.eventbrite.com/e/bier-kaltgetranke-pretzl-tickets-633982477657,DE,Berlin,BE,Ebertstraße 24,10117,52.5172377,13.3775499,Hopfingerbräu am Brandenburger Tor
195,10,2023-06-10,2023-06-10,Euphoria Ecstatic Dance | The Heart of June,https://www.eventbrite.co.uk/e/euphoria-ecstatic-dance-the-heart-of-june-tickets-641160216467,DE,Berlin,Berlin,Danziger Allee,10407,52.5361977,13.4325784,Green Yoga -SEZ
196,10,2023-06-10,2023-06-10,silent.move walk'n'dance Disco Tour // Nur die besten 80er Hits,https://www.eventbrite.de/e/silentmove-walkndance-disco-tour-nur-die-besten-80er-hits-tickets-530924317927,DE,Berlin,,Dorothea-Schlegel-Platz,10117,52.5202894,13.3869776,Berlin City Center
197,10,2023-06-24,2023-06-24,Circul’art Fair & EcoMarket with Faircado @ betahaus,https://www.eventbrite.com/e/circulart-fair-ecomarket-with-faircado-betahaus-tickets-646971939487,DE,Berlin,BE,Rudi-Dutschke-Straße 23,10969,52.50659969999999,13.3915696,betahaus | Kreuzberg
198,10,2023-06-27,2023-06-27,#IamRemarkable,https://www.eventbrite.com/e/iamremarkable-tickets-641202874057,DE,Berlin,Berlin,Storkower Straße 132,10407,52.5329612,13.4532178,Ironhack Berlin
199,11,2023-07-07,2023-07-08,Black Widows: Wicked Womxn with Lethal Humor | English Comedy OPEN MIC,https://www.eventbrite.de/e/black-widows-wicked-womxn-with-lethal-humor-english-comedy-open-mic-tickets-634000591837,DE,Berlin,BE,Grünberger Straße 84,10245,52.5109095,13.4613414,The Wall Comedy
200,11,2023-06-09,2023-06-09,Invasión Latina | Berlín #5 - Comedia stand-up en Español,https://www.eventbrite.de/e/invasion-latina-berlin-5-comedia-stand-up-en-espanol-tickets-640719277607,DE,Berlin,BE,Bergstraße 2,10115,52.5294848,13.3956931,Z-Bar
201,11,2023-06-16,2023-06-16,Die Improvisionäre spielen... was ihr wollt!,https://www.eventbrite.de/e/die-improvisionare-spielen-was-ihr-wollt-tickets-607009300157,DE,Berlin,Berlin,Caligariplatz 1,13086,52.5526134,13.430481800000052,Brotfabrik
202,11,2023-06-18,2023-06-18,MAKE POETRY SEXY AGAIN,https://www.eventbrite.de/e/make-poetry-sexy-again-tickets-613390476427,DE,Berlin,BE,Frankfurter Allee 91,10247,52.5141888,13.4721349,Theater Verlängertes Wohnzimmer
203,11,2023-06-12,2023-06-12,Weekly Mindfulness Yoga,https://www.eventbrite.com.ar/e/weekly-mindfulness-yoga-tickets-632650674197,DE,Berlin,BE,Alexanderstraße 40,10179,52.5168238,13.4178768,The Social Hub Berlin
204,11,2023-06-26,2023-06-27,ICBC Global Investment Forum - Berlin 2023,https://www.eventbrite.com/e/icbc-global-investment-forum-berlin-2023-tickets-484047447947,DE,Berlin,Berlin,Unter den Linden 77,10117,52.5160431,13.3799442,Hotel Adlon Kempinski Berlin
205,11,2023-06-07,2023-06-07,Brave Spaces 2.0 Launch Party,https://www.eventbrite.de/e/brave-spaces-20-launch-party-tickets-636471281737,DE,Berlin,BE,Lucy-Lameck-Straße 32,12049,52.48389840000001,13.4228561,Oyoun
206,11,2023-07-01,2023-07-02,GRAND SPLASH im Heimathafen Neukölln,https://www.eventbrite.de/e/grand-splash-im-heimathafen-neukolln-tickets-590408827697,DE,Berlin,BE,Karl-Marx-Straße 141,12043,52.4769744,13.4397592,Heimathafen Neukölln
207,11,2023-06-09,2023-06-09,silent.move walk'n'dance Disco Tour // Best of the 80s & 90s!,https://www.eventbrite.de/e/silentmove-walkndance-disco-tour-best-of-the-80s-90s-tickets-530837728937,DE,Berlin,Berlin,Unter den Linden 3,10117,52.5172698,13.3967482,Museumsinsel
208,11,2023-06-12,2023-06-12,Open Mic Night at Ratzeputz!,https://www.eventbrite.de/e/open-mic-night-at-ratzeputz-tickets-387387685997,DE,Berlin,BE,Weserstr. 182,12045,52.4853693,13.4371082,Ratzeputz
209,11,2023-06-15,2023-06-15,Kimchi Workshop - vegan,https://www.eventbrite.de/e/kimchi-workshop-vegan-tickets-621600051487,DE,Berlin,Berlin,Prenzlauer Allee 208,10405,52.53684870000001,13.422434500000008,Plant Base
210,11,2023-06-10,2023-06-10,"""Evening Retreat"": Mudras, Vipassana, Gehmeditation und Yoga Nidra",https://www.eventbrite.de/e/evening-retreat-mudras-vipassana-gehmeditation-und-yoga-nidra-tickets-607652624357,DE,Berlin,Berlin,Akazienstraße 27,10823,52.4867804,13.3546516,"Yogastudio ""yoga on the move"""
211,11,2023-06-12,2023-06-12,MAD MONDAY MAINSHOW - Stand up Comedy im Mad Monkey Room (20 Uhr),https://www.eventbrite.de/e/mad-monday-mainshow-stand-up-comedy-im-mad-monkey-room-20-uhr-tickets-490948850227,DE,Berlin,Berlin,Danziger Str. 1,10435,52.54172089999999,13.4121977,Mad Monkey Room
212,11,2023-06-20,2023-06-20,Beyond Books: KI-Kompetenz für die Welt von morgen,https://www.eventbrite.com/e/beyond-books-ki-kompetenz-fur-die-welt-von-morgen-tickets-641320576107,DE,Berlin,Berlin,Unter den Linden 6,10117,52.5186289,13.3935634,Hauptgebäude der Humboldt-Universität zu Berlin
213,11,2023-06-26,2023-06-26,Gründerinnen Meetup Berlin,https://www.eventbrite.de/e/grunderinnen-meetup-berlin-tickets-580129331447,DE,Berlin,,Hardenbergstraße 10,10623,52.5094141,13.3247912,Cafe Hardenberg
214,11,2023-07-06,2023-07-06,Active Consciousness Meditation & Satsang with Punnu Wasu,https://www.eventbrite.de/e/active-consciousness-meditation-satsang-with-punnu-wasu-tickets-615543766977,DE,Berlin,BE,Milastraße 4,10437,52.54552169999999,13.4108101,Life Artists Creators Hub
215,11,2023-06-17,2023-06-17,Der Troubadour,https://www.eventbrite.de/e/der-troubadour-tickets-616910514957,DE,Berlin,Berlin,Soehtstr. 7,12203,52.43752,13.308379899999977,Ehemaliges Frauengefängnis Lichterfelde
216,11,2023-06-07,2023-06-07,Calling all Tech Enthusiasts: Join ReDI-School's Volunteer Info Session,https://www.eventbrite.de/e/calling-all-tech-enthusiasts-join-redi-schools-volunteer-info-session-tickets-643598108267,DE,Berlin,BE,Urbanstraße 71,10967,52.4883658,13.4231622,charly workspace
217,11,2023-06-14,2023-06-14,"""УЕЗЖАЕТЕ? УЕЗЖАЙТЕ!""",https://www.eventbrite.de/e/624346155157,DE,Berlin,BE,Kaiserin-Augusta-Allee 101,10553,52.5254218,13.3201507,PAS Berlin
218,11,2023-06-16,2023-06-16,Berlin Beat Club,https://www.eventbrite.de/e/berlin-beat-club-tickets-555117721047,DE,Berlin,BE,Chausseestraße 102,10115,52.5322213,13.3804414,Ballhaus Berlin GmbH
219,12,2023-06-17,2023-06-17,Lord Zeppelin - Led Zeppelin Tribute Band,https://www.eventbrite.de/e/lord-zeppelin-led-zeppelin-tribute-band-tickets-626814859117,DE,Berlin,Berlin,Am Juliusturm 62,13599,52.5397012,13.2165944,Freilichtbühne an der Zitadelle
220,12,2023-06-22,2023-06-22,Charming Boys & Toys LIVE,https://www.eventbrite.com/e/charming-boys-toys-live-tickets-647003002397,DE,Berlin,BE,Revaler Straße 99,10245,52.507921,13.453509,Bar Zum schmutzigen Hobby
221,12,2023-07-01,2023-07-01,La Bomba de Tiempo live in Berlin,https://www.eventbrite.de/e/la-bomba-de-tiempo-live-in-berlin-tickets-592499460837,DE,Berlin,BE,Am Flutgraben 2,12435,52.4966371,13.4518179,Festsaal Kreuzberg
222,12,2023-06-24,2023-06-24,Open House | Berlin School of Technology (SRH Berlin),https://www.eventbrite.de/e/open-house-berlin-school-of-technology-srh-berlin-tickets-609352759507,DE,Berlin,BE,Ernst-Reuter-Platz 10,10587,52.51364269999999,13.3220059,SRH Hochschule Berlin
223,12,2023-06-22,2023-06-22,"Bildung & Antirassismus | ""Was hält unsere Gesellschaft zusammen?""",https://www.eventbrite.de/e/bildung-antirassismus-was-halt-unsere-gesellschaft-zusammen-tickets-634626483897,DE,Berlin,BE,Paul-Lincke-Ufer 21,10999,52.4937094,13.4296375,bUm - Raum für die engagierte Zivilgesellschaft (betterplace Umspannwerk GmbH)
224,12,2023-06-21,2023-06-21,A Midsummer Night’s Dream - Preview,https://www.eventbrite.de/e/a-midsummer-nights-dream-preview-tickets-638033113217,DE,Berlin,BE,Sömmeringstraße 15,10589,52.5221036,13.3052742,GLOBE BERLIN
225,12,2023-06-12,2023-06-12,Italiae.,https://www.eventbrite.it/e/italiae-tickets-580438425957,DE,Berlin,Berlin,Hildebrandstraße 2,10785,52.50911579999999,13.359668000000056,Istituto Italiano di Cultura/ Italienisches Kulturinstitut
226,12,2023-06-15,2023-06-15,B2B Sales Roundtable: Unlocking the Power of AI,https://www.eventbrite.de/e/b2b-sales-roundtable-unlocking-the-power-of-ai-tickets-636546917967,DE,Berlin,BE,Rosenthaler Straße 36,10178,52.52492059999999,13.4017952,"Workshop, Project & Meeting Space - Rosebud"
227,12,2023-06-16,2023-06-16,Mittelstand-Digital Zentrum Berlin - Showroom,https://www.eventbrite.de/e/mittelstand-digital-zentrum-berlin-showroom-registrierung-608271395117,DE,Berlin,Berlin,Max-Urich-Straße 3,13355,52.5393336,13.3839333,AI Campus Berlin
228,12,2023-06-24,2023-06-24,Open House | Berlin School of Management (SRH Berlin),https://www.eventbrite.de/e/open-house-berlin-school-of-management-srh-berlin-tickets-610986686627,DE,Berlin,BE,Ernst-Reuter-Platz 10,10587,52.51364269999999,13.3220059,SRH Hochschule Berlin
229,12,2023-06-09,2023-06-09,ORGANISMO Summeredition,https://www.eventbrite.de/e/organismo-summeredition-tickets-637978600167,DE,Berlin,Berlin,Provinzstraße 40-44,13409,52.5680103,13.379225,Monopol
230,12,2023-06-15,2023-06-15,Duct Tape Vol. 7,https://www.eventbrite.com/e/duct-tape-vol-7-tickets-647985541197,DE,Berlin,BE,Holzmarktstraße 25,10243,52.5116206,13.4266777,Holzmarkt 25
231,12,2023-06-10,2023-06-10,Probetraining Selbstverteidigung - Kampfkunst  - Kampfsport,https://www.eventbrite.de/e/probetraining-selbstverteidigung-kampfkunst-kampfsport-tickets-215198463397,DE,Berlin,BE,Paulstraße 28,10557,52.52197220000001,13.3565714,Paulstraße 28
232,12,2023-06-10,2023-06-10,Conquering the Job Market Hussle in Germany,https://www.eventbrite.com/e/conquering-the-job-market-hussle-in-germany-tickets-642479111317,DE,Berlin,BE,Straße am Schoelerpark 37,10715,52.4839807,13.3241435,Haus der Nachbarschafft
233,12,2023-06-13,2023-06-13,Early Late Night,https://www.eventbrite.de/e/early-late-night-tickets-632888294927,DE,Berlin,BE,Frankfurter Allee 91,10247,52.5141888,13.4721349,Theater Verlängertes Wohnzimmer
234,12,2023-07-14,2023-07-14,Ulli & Die grauen Zellen,https://www.eventbrite.de/e/ulli-die-grauen-zellen-tickets-555071282147,DE,Berlin,Berlin,Am Juliusturm 62,13599,52.5397012,13.2165944,Freilichtbühne an der Zitadelle
235,12,2023-06-16,2023-06-16,ATEMMAGIE – Breathwork,https://www.eventbrite.de/e/atemmagie-breathwork-tickets-649704803557,DE,Berlin,BE,Schulzestraße 21,13187,52.5674597,13.3909647,Raum für KörperBewußtsein
236,12,2023-06-09,2023-06-10,Friday Socials,https://www.eventbrite.de/e/friday-socials-tickets-620016535147,DE,Berlin,BE,Invalidenstraße 129,10115,52.53149999999999,13.3885,The Castle Berlin Mitte
237,12,2023-07-07,2023-07-09,Spiritual Awakening Course with Punnu Wasu,https://www.eventbrite.de/e/spiritual-awakening-course-with-punnu-wasu-tickets-615602392327,DE,Berlin,BE,Milastraße 4,10437,52.54552169999999,13.4108101,Life Artists Creators Hub
238,12,2023-06-06,2023-06-06,MONSTER MAINSHOW! Stand up Comedy im Mad Monkey Room (20 Uhr),https://www.eventbrite.de/e/monster-mainshow-stand-up-comedy-im-mad-monkey-room-20-uhr-tickets-490950314607,DE,Berlin,Berlin,Danziger Str. 1,10435,52.54172089999999,13.4121977,Mad Monkey Room
