,page,startDate,endDate,name,url,addressCountry,addressLocality,addressRegion,streetAddress,postalCode,latitude,longitude,locationName
0,32,2023-07-04,2023-07-04,MONSTER Earlyshow - Stand up Comedy im Mad Monkey Room (18:30 Uhr).,https://www.eventbrite.de/e/monster-earlyshow-stand-up-comedy-im-mad-monkey-room-1830-uhr-tickets-490957596387,DE,Berlin,Berlin,Danziger Str. 1,10435,52.54172089999999,13.4121977,Mad Monkey Room
1,32,2023-06-06,2023-06-07,Aurora vol. II. Animal by Another Name with Caitlin Berrigan,https://www.eventbrite.co.uk/e/aurora-vol-ii-animal-by-another-name-with-caitlin-berrigan-tickets-625096359037,DE,Berlin,BE,Donaustraße 84,12043,52.4790678,13.44168,TIER - The Institute for Endotic Research
2,32,2023-06-08,2023-06-08,Tennis Coaching : Thursday Evening,https://www.eventbrite.de/e/tennis-coaching-thursday-evening-tickets-623449904447,DE,Berlin,BE,Göschenstraße 7-9,13437,52.5965241,13.3299022,Upper north : Wittenau
3,32,2023-06-10,2023-06-10,Slam&Drang - Der Newcomer Poetry Slam in der Alten Feuerwache,https://www.eventbrite.de/e/slamdrang-der-newcomer-poetry-slam-in-der-alten-feuerwache-tickets-635401913227,DE,Berlin,BE,Marchlewskistraße 6,10243,52.516223,13.4423398,Alte Feuerwache
4,32,2023-06-07,2023-06-07,FINK FLOYD // #PANDAjazz,https://www.eventbrite.de/e/fink-floyd-pandajazz-tickets-641322592137,DE,Berlin,,Knaackstraße 97,10435,52.5398461,13.4132841,PANDA Platforma
5,32,2023-06-07,2023-06-07,"Startup financing and its legal elements:Term Sheets, loans, VESOPS, ESOPS",https://www.eventbrite.de/e/startup-financing-and-its-legal-elementsterm-sheets-loans-vesops-esops-tickets-637919964787,DE,Berlin,Berlin,Bouchéstraße 12,12435,52.4936476,13.448235,MotionLab.Berlin
6,32,2023-07-21,2023-07-21,ORATIS Conscious Dating & Play Night,https://www.eventbrite.de/e/oratis-conscious-dating-play-night-tickets-630490763847,DE,Berlin,BE,Hasenheide 9,10967,52.48746200000001,13.4223874,Wamos - Veranstaltungszentrum
7,32,2023-06-24,2023-06-25,Aftershow Party Humboldt Gymnasium Berlin Tegel 2023,https://www.eventbrite.de/e/aftershow-party-humboldt-gymnasium-berlin-tegel-2023-tickets-639429870957,DE,Berlin,Berlin,Wiebestr. 42,10553,52.52798,13.31894,Loewe Saal
8,32,2023-06-16,2023-06-17,"WhyNot Party✨ - Disko, Pop, Hip Hop, Pure Dance, Urban Music - 3 Floors",https://www.eventbrite.de/e/whynot-party-disko-pop-hip-hop-pure-dance-urban-music-3-floors-tickets-648779656417,DE,Berlin,BE,Revaler Straße 99,10245,52.5072762,13.4547738,cassiopeia Club
9,32,2023-07-08,2023-07-08,Paint Pouring Workshop,https://www.eventbrite.de/e/paint-pouring-workshop-tickets-594611758777,DE,Berlin,BE,Tempelhofer Damm,12101,52.4748569,13.4005926,Tempelhofer Feld
10,32,2023-06-06,2023-06-06,90 min Breathwork with Kim Gerlach at startbahn,https://www.eventbrite.de/e/90-min-breathwork-with-kim-gerlach-at-startbahn-tickets-631344868497,DE,Berlin,BE,Herrfurthpl. 14,12049,52.4770372,13.4220988,Startbahn
11,32,2023-06-12,2023-06-12,bwg sitzungswoche Sprechstunde Michael Roth MdB,https://www.eventbrite.de/e/bwg-sitzungswoche-sprechstunde-michael-roth-mdb-tickets-559016201507,DE,Berlin,Berlin,Schiffbauerdamm 8,10117,52.5211842,13.385374899999988,Ständige Vertretung StäV
12,32,2023-06-09,2023-06-09,DJ@SUNDOWN,https://www.eventbrite.de/e/djsundown-tickets-640489339857,DE,Berlin,BE,Alt-Moabit 99,10559,52.522975,13.34587,CARL & SOPHIE Spree Restaurant
13,32,2023-06-10,2023-06-10,Dark Mode #40 - The Revenge of the Jewdi @ The Wall Comedy Club,https://www.eventbrite.de/e/dark-mode-40-the-revenge-of-the-jewdi-the-wall-comedy-club-tickets-635328142577,DE,Berlin,BE,Grünberger Straße 84,10245,52.5109095,13.4613414,The Wall Comedy
14,32,2023-06-08,2023-06-08,Canada Immigration - Live Q&A (Berlin),https://www.eventbrite.com/e/canada-immigration-live-qa-berlin-tickets-632798947687,DE,Berlin,BE,Berlin,0000,52.52000659999999,13.404954,Online over ZOOM
15,32,2023-06-20,2023-06-20,Erster Berliner Schulchorpreis,https://www.eventbrite.de/e/erster-berliner-schulchorpreis-tickets-519735361457,DE,Berlin,Berlin,Straße zum FEZ 2,12459,52.46108,13.54908,Landesmusikakademie Berlin
16,32,2023-06-21,2023-06-21,Beer 'n Mic: English stand-up at the Scottish pub! 21.06.23,https://www.eventbrite.de/e/beer-n-mic-english-stand-up-at-the-scottish-pub-210623-tickets-640372781227,DE,Berlin,BE,Donaustraße 119,12043,52.484075,13.4324361,Das Gift
17,32,2023-06-11,2023-06-11,English stand-up: New Girl in Berlin 11.06.23,https://www.eventbrite.com/e/english-stand-up-new-girl-in-berlin-110623-tickets-640038451237,DE,Berlin,BE,Nürnberger Str. 68,10787,52.5045126,13.3412181,Terminal1
18,32,2023-06-26,2023-06-27,Aftershow Party Johann Gottfried Herder Gymnasium 2023,https://www.eventbrite.de/e/aftershow-party-johann-gottfried-herder-gymnasium-2023-tickets-634791547607,DE,Berlin,Berlin,Columbiadamm 13-21,10965,52.48464999999999,13.39221,Columbiahalle
19,32,2023-06-15,2023-06-15,"Quant UX - Watch Party @GROPYUS, Berlin",https://www.eventbrite.de/e/quant-ux-watch-party-gropyus-berlin-tickets-637911018027,DE,Berlin,BE,Hauptstraße,10827,52.4863721,13.3536833,GROPYUS Technologies GmbH
