,page,startDate,endDate,name,url,addressCountry,addressLocality,addressRegion,streetAddress,postalCode,latitude,longitude,locationName
0,31,2023-06-12,2023-06-12,Fight Club - Women*'s competition class at Gracie Academy Berlin,https://www.eventbrite.de/e/fight-club-womens-competition-class-at-gracie-academy-berlin-tickets-502469548947,DE,Berlin,Berlin,Lobeckstraße 36,10969,52.5037617,13.4077196,Fenriz Gym
1,31,2023-07-07,2023-07-07,Žana Fejzić presents Chameleon: Solo English Standup Comedy Hour (Berlin),https://www.eventbrite.com/e/zana-fejzic-presents-chameleon-solo-english-standup-comedy-hour-berlin-tickets-633314238937,DE,Berlin,BE,Bergstraße 2,10115,52.5294848,13.3956931,Z-Bar
2,31,2023-06-23,2023-06-23,Windfalls - Falling Fruit,https://www.eventbrite.co.uk/e/windfalls-falling-fruit-tickets-650613992967,DE,Berlin,BE,Trautenaustraße 24,10717,52.49299909999999,13.3319376,Die Holzbläser
3,31,2023-06-10,2023-06-10,Startups Fund Raising Program,https://www.eventbrite.com/e/startups-fund-raising-program-tickets-261832426837,DE,Berlin,Berlin,Virtual (Online),10318,52.4810357,13.5186468,Berlin
4,31,2023-06-10,2023-06-10,Control Your Emotions and Own Your Life!– Workshop,https://www.eventbrite.de/e/control-your-emotions-and-own-your-life-workshop-tickets-641944973697,DE,Berlin,BE,Savignyplatz 3,10623,52.5060571,13.323307,Chito Coffee
5,31,2023-06-22,2023-06-22,Meditation made easy,https://www.eventbrite.de/e/meditation-made-easy-tickets-647148477517,DE,Berlin,BE,Greifswalder Straße 23,10405,52.53127749999999,13.4278877,b23
6,31,2023-06-08,2023-06-08,Walk N Talk - Netzwerken in Berlin - Leichtigkeit und Innere Stärke,https://www.eventbrite.de/e/walk-n-talk-netzwerken-in-berlin-leichtigkeit-und-innere-starke-tickets-646534230287,DE,Berlin,berlin,Ossietzkystraße,13187,52.5738758,13.407541,"Pumpe am Schlosspark Pankow, Ossietzkystraße, 13187 Berlin             https://goo.gl/maps/3hS96NW2jGSc8tdh6"
7,31,2023-06-10,2023-06-10,5Rhythms Dance at Kulturbrauerei Berlin \ Bring a friend for free  in June,https://www.eventbrite.ca/e/5rhythms-dance-at-kulturbrauerei-berlin-bring-a-friend-for-free-in-june-tickets-644379515477,DE,Berlin,Berlin,Studio A -  Eingang Haus 12 Aufgang F -  Enter via Courtyard next to Rewe,10435,52.53881939999999,13.4128101,Center of Dance
8,31,2023-07-08,2023-07-08,QueerGarten - Kunst und Kultur im Knast,https://www.eventbrite.de/e/queergarten-kunst-und-kultur-im-knast-tickets-617005188127,DE,Berlin,Berlin,Soehtstr. 7,12203,52.43752,13.308379899999977,Ehemaliges Frauengefängnis Lichterfelde
9,31,2023-06-07,2023-06-08,QUEENS NIGHT,https://www.eventbrite.de/e/queens-night-tickets-412884196747,DE,Berlin,BE,Joachimsthaler Straße 15,10719,52.5020624,13.3308349,MAXXIM CLUB BERLIN
10,31,2023-06-29,2023-06-29,Dr. Mulamustafić - Argumentationstrainer: So punktest du bei Stakeholdern,https://www.eventbrite.com/e/dr-mulamustafic-argumentationstrainer-so-punktest-du-bei-stakeholdern-tickets-634700535387,DE,Berlin,BE,Kurfürstendamm 170,10707,52.49989000000001,13.30885,BITGRIP GmbH
11,31,2023-06-09,2023-06-10,HAUNT sessions. Outdoor acoustic concerts in the art gallery garden,https://www.eventbrite.es/e/haunt-sessions-outdoor-acoustic-concerts-in-the-art-gallery-garden-tickets-646510780147,DE,Berlin,BE,Kluckstraße 23A,10785,52.5035409,13.3620462,HAUNT by Frontviews
12,31,2023-06-14,2023-06-14,Sommerfest Uplus,https://www.eventbrite.de/e/sommerfest-uplus-tickets-636619053727,DE,Berlin,BE,Breite Straße 50,13187,52.572023,13.41488,Baba đu Restaurant
13,31,2023-06-07,2023-06-07,Crowdfunding: How to launch a successful campaign and launch your product,https://www.eventbrite.de/e/crowdfunding-how-to-launch-a-successful-campaign-and-launch-your-product-tickets-637939091997,DE,Berlin,Berlin,Bouchéstraße 12,12435,52.4936476,13.448235,MotionLab.Berlin
14,31,2023-07-14,2023-07-15,ACTORS  • Berlin,https://www.eventbrite.de/e/actors-berlin-tickets-514082403307,DE,Berlin,BE,Revaler Strasse 99,10245,52.5071701,13.4529196,Badehaus Berlin
15,31,2023-06-10,2023-06-10,The Space Between - Opening,https://www.eventbrite.de/e/the-space-between-opening-tickets-647936484467,DE,Berlin,BE,Prinzenstraße 84.2,10969,52.50381400000001,13.4094821,CLB Berlin
16,31,2023-06-17,2023-06-17,bauhaus_werkstatt: Klingende Formen und farbige Klänge,https://www.eventbrite.de/e/bauhaus-werkstatt-klingende-formen-und-farbige-klange-tickets-639216061447,DE,Berlin,BE,Knesebeckstraße 1,10623,52.5107335,13.3227844,the temporary bauhaus-archiv
17,31,2023-06-08,2023-06-08,ALGORYTHM™️| Intro to Machine Learning,https://www.eventbrite.com/e/algorythmtm-intro-to-machine-learning-tickets-581854842497,DE,Berlin,,.,00000,52.52000659999999,13.404954,Algorythm Online Classroom
18,31,2023-06-28,2023-06-28,52 Seasons - Foraged & Fermented Multi-Course Dinner  Experience,https://www.eventbrite.de/e/52-seasons-foraged-fermented-multi-course-dinner-experience-tickets-632200788577,DE,Berlin,Berlin,Moosdorfstraße,12435,52.4880182,13.460502399999996,Edible Alchemy  in the Remise
19,31,2023-06-25,2023-06-25,THE FULL EXPERIENCE WORKSHOP - Unlock your Confidence,https://www.eventbrite.de/e/the-full-experience-workshop-unlock-your-confidence-tickets-642154550547,DE,Berlin,BE,Böckhstraße 21,10967,52.49338880000001,13.4197042,La Caminada Tanzstudio
