,page,startDate,endDate,name,url,addressCountry,addressLocality,addressRegion,streetAddress,postalCode,latitude,longitude,locationName
0,40,2023-06-07,2023-06-07,Portfolio Review and Coaching: Improve Your Photography with Expert Advice,https://www.eventbrite.de/e/portfolio-review-and-coaching-improve-your-photography-with-expert-advice-registration-564943018777,DE,Berlin,BE,Hilda-Geiringer-Weg 8,10557,52.5266982,13.371916,"Coffee Fellows - Kaffee, Bagels, Frühstück"
1,40,2023-06-07,2023-06-07,Kundalini Yoga | Rooftop Garden Mitte,https://www.eventbrite.de/e/kundalini-yoga-rooftop-garden-mitte-tickets-638817429127,DE,Berlin,BE,Christburger Straße,10405,52.5357904,13.427074,Christburger Straße
2,40,2023-06-07,2023-06-07,Single Vs. Married: An English Standup Comedy Battle About Love,https://www.eventbrite.co.uk/e/single-vs-married-an-english-standup-comedy-battle-about-love-tickets-637436568937,DE,Berlin,BE,Bergstraße 2,10115,52.5294848,13.3956931,Z-Bar
3,40,2023-06-13,2023-06-13,Watercolor Painting Lesson [The Setup],https://www.eventbrite.com/e/watercolor-painting-lesson-the-setup-tickets-641828354887,DE,Berlin,BE,Bugenhagenstraße 9,10551,52.5279417,13.341613,CISpace Coworking Café
4,40,2023-06-10,2023-06-10,Kinder sicher und stark machen in Berlin!,https://www.eventbrite.de/e/kinder-sicher-und-stark-machen-in-berlin-tickets-135159247949,DE,Berlin,Berlin,Nach Vereinbarung,10585,52.52198139999999,13.413306,Berlin
5,40,2023-06-24,2023-06-24,Kirtan - Mantra Music Meditation,https://www.eventbrite.com/e/kirtan-mantra-music-meditation-tickets-641061089977,DE,Berlin,BE,Berliner Allee 209,13088,52.55685649999999,13.4666567,Berliner Allee 209
6,40,2023-06-14,2023-06-14,bwg sitzungswoche Sprechstunde Dagmar Schmidt MdB,https://www.eventbrite.de/e/bwg-sitzungswoche-sprechstunde-dagmar-schmidt-mdb-tickets-559116110337,DE,Berlin,Berlin,Schiffbauerdamm 8,10117,52.5211842,13.385374899999988,Ständige Vertretung StäV
7,40,2023-06-21,2023-06-21,Speech Structure Masterclass Berlin,https://www.eventbrite.com/e/speech-structure-masterclass-berlin-tickets-637987346327,DE,Berlin,BE,Potsdamer Platz,10785,52.5096488,13.3759441,Berlin
8,40,2023-06-07,2023-06-07,Gestalte Dein eigenes großes Spin - Painting Kunstwerk!,https://www.eventbrite.de/e/gestalte-dein-eigenes-groes-spin-painting-kunstwerk-tickets-642812097287,DE,Berlin,Berlin,Oderberger Straße 35,10435,52.5399337,13.4054106,Studio Jans Echternacht
9,40,2023-06-06,2023-06-06,Ü40 Socialmatch - Dating-Event in Berlin,https://www.eventbrite.de/e/u40-socialmatch-dating-event-in-berlin-tickets-620640340967,DE,Berlin,Berlin,-,,52.52000659999999,13.404953999999975,Genaue Location wird einen Tag vor dem Event per E-Mail mitgeteilt
10,40,2023-06-24,2023-06-24,Procreate Sommer Camp - Fortgeschrittenen Workshop,https://www.eventbrite.de/e/procreate-sommer-camp-fortgeschrittenen-workshop-registrierung-640787321127,DE,Berlin,,Karl-Marx-Straße 4,12043,52.4858388,13.4249053,LIANE Kreativspace Berlin
11,40,2023-06-16,2023-06-16,"Unholy Trinity : The Dark, The Dirty & The Musical | English Comedy Show",https://www.eventbrite.de/e/unholy-trinity-the-dark-the-dirty-the-musical-english-comedy-show-tickets-646110553057,DE,Berlin,BE,Bergstraße 2,10115,52.52959140000001,13.3960755,Z-Bar
12,40,2023-06-13,2023-06-13,1. Berliner Rednernacht,https://www.eventbrite.de/e/1-berliner-rednernacht-tickets-632358309727,DE,Berlin,BE,Linienstraße 227,10178,52.52673249999999,13.411732,Volksbühne am Rosa-Luxemburg-Platz
13,40,2023-06-15,2023-06-15,Community Yoga for Creatives,https://www.eventbrite.de/e/community-yoga-for-creatives-tickets-638824349827,DE,Berlin,BE,Greifswalder Straße 23,10405,52.53127749999999,13.4278877,b23
14,40,2023-06-10,2023-06-10,The Wild Show - Stand Up Comedy in English - Open Mic,https://www.eventbrite.de/e/the-wild-show-stand-up-comedy-in-english-open-mic-tickets-644838478247,DE,Berlin,BE,Donaustraße 112,12043,52.4831996,13.4341756,Valentin Stüberl
15,40,2023-06-12,2023-06-12,Fabelhaft Comedy: Stand-Up Comedy in Berlin Mitte,https://www.eventbrite.de/e/fabelhaft-comedy-stand-up-comedy-in-berlin-mitte-tickets-636532916087,DE,Berlin,BE,Bergstraße 2,10115,52.5294848,13.3956931,Z-Bar
16,40,2023-07-10,2023-07-10,Systemischer Aufstellungsabend SYNAMIK™ mit Marcel Hübenthal,https://www.eventbrite.de/e/systemischer-aufstellungsabend-synamiktm-mit-marcel-hubenthal-tickets-420370067187,DE,Berlin,Berlin,Käthe-Niederkirchner-Straße 18,10407,52.5297984,13.4329674,Käthe-Niederkirchner-Straße 18
17,40,2023-06-10,2023-06-10,COLORI  MONDOLETTOSOTTOILCORVO con FINE,https://www.eventbrite.de/e/colori-mondolettosottoilcorvo-con-fine-tickets-637179800937,DE,Berlin,Berlin,Caligariplatz 1,13086,52.5526134,13.430481800000052,Brotfabrik
18,40,2023-06-15,2023-06-15,Kaktus Comedy am 15. Juni - 20:00 Uhr mit FLINTA* & queeren Comedians,https://www.eventbrite.com/e/kaktus-comedy-am-15-juni-2000-uhr-mit-flinta-queeren-comedians-tickets-629202099417,DE,Berlin,BE,Fanningerstraße 47,10365,52.5141034,13.4985762,interkosmos - café. bar. utopie
19,40,2023-06-21,2023-06-21,Late Night Comedy Hang,https://www.eventbrite.com/e/late-night-comedy-hang-tickets-645283298717,DE,Berlin,BE,Bergstraße 2,10115,52.5294848,13.3956931,Z-Bar
